XW-3 (CAS-9)            
1 50466U 21131B   26063.22775483  .00000667  00000+0  22025-3 0  9996
2 50466  98.4970 156.2145 0005056  63.3244 296.8462 14.41242082219997
GREENCUBE (IO-117)      
1 53109U 22080E   26061.72898270 -.00000003  00000+0  00000+0 0  9990
2 53109  70.1617 335.2737 0009043 313.3588  46.6318  6.42583122 85227
UMKA 1 (RS40S)          
1 57172U 23091G   26063.17235725  .00011014  00000+0  52031-3 0  9996
2 57172  97.5189 122.3011 0014518 123.3536 236.9091 15.19498576148058
CUBESX-HSE 3 (RS42S)    
1 57178U 23091N   26063.19559451  .00021550  00000+0  77882-3 0  9996
2 57178  97.5217 127.6105 0012815 104.7869 255.4791 15.28402440148371
MONITOR-3 (RS58S)       
1 57180U 23091Q   26063.20333301  .00017712  00000+0  69783-3 0  9991
2 57180  97.5213 125.9870 0013730 109.2599 251.0125 15.25571978148279
MONITOR-4 (RS57S)       
1 57182U 23091S   26063.18876600  .00017647  00000+0  69354-3 0  9995
2 57182  97.5207 125.9370 0013686 109.7287 250.5428 15.25657013148273
MONITOR-2 (RS39S)       
1 57184U 23091U   26063.20150050  .00008458  00000+0  42029-3 0  9994
2 57184  97.5212 122.1714 0012958 115.6890 244.5683 15.17833874148020
SVYATOBOR 1 (RS60S)     
1 57187U 23091X   26063.12184204  .00015922  00000+0  64548-3 0  9990
2 57187  97.5219 126.4406 0011275 102.4374 257.8126 15.24667497148299
VIZARD-METEO (RS38S)    
1 57189U 23091Z   26063.21368803  .00028472  00000+0  90617-3 0  9991
2 57189  97.5208 130.8136 0008964  89.1593 271.0676 15.32507639148594
NANOZOND 1 (RS49S)      
1 57190U 23091AA  26063.21207451  .00259710  00000+0  19200-2 0  9993
2 57190  97.5096 143.0279 0000530  43.8027 316.3277 15.72185537149410
POLYTECH-UNIVERSE 3 (R*)
1 57191U 23091AB  26063.17624970  .00009206  00000+0  45405-3 0  9998
2 57191  97.5185 121.6530 0017131 131.8875 228.3823 15.18014866148016
UTMN 2 (RS27S)          
1 57203U 23091AP  26063.20705141  .00021859  00000+0  76958-3 0  9991
2 57203  97.5210 129.1268 0009886  93.3764 266.8606 15.29288981148487
KUZGTU 1 (RS47S)        
1 57217U 23091AV  26063.16735662  .00019794  00000+0  74033-3 0  9999
2 57217  97.5194 126.7112 0013025 107.4423 252.8241 15.27286242148333
SONATE-2                
1 59112U 24043Q   26062.33696594  .00042896  00000+0  74322-3 0  9991
2 59112  97.5388 206.9640 0007797 228.8170 131.2409 15.50754835111449
MESAT1                  
1 60209U 24125G   26063.09553115  .00057973  00000+0  92357-3 0  9996
2 60209  97.2459 278.8833 0011269 244.7143 115.2943 15.53001592 93208
OOV-CUBE (TUBSAT-30)    
1 60240U 24128F   26063.03822873  .00005107  00000+0  38902-3 0  9996
2 60240  61.9937 232.0752 0054992 111.2238 249.4739 15.02197966 90314
