[{"OBJECT_NAME":"XW-3 (CAS-9)","OBJECT_ID":"2021-131B","EPOCH":"2026-03-04T05:27:58.017312","MEAN_MOTION":14.41242082,"ECCENTRICITY":0.0005056,"INCLINATION":98.497,"RA_OF_ASC_NODE":156.2145,"ARG_OF_PERICENTER":63.3244,"MEAN_ANOMALY":296.8462,"EPHEMERIS_TYPE":0,"CLASSIFICATION_TYPE":"U","NORAD_CAT_ID":50466,"ELEMENT_SET_NO":999,"REV_AT_EPOCH":21999,"BSTAR":0.00022025,"MEAN_MOTION_DOT":6.67e-6,"MEAN_MOTION_DDOT":0},{"OBJECT_NAME":"GREENCUBE (IO-117)","OBJECT_ID":"2022-080E","EPOCH":"2026-03-02T17:29:44.105280","MEAN_MOTION":6.42583122,"ECCENTRICITY":0.00090439,"INCLINATION":70.1617,"RA_OF_ASC_NODE":335.2737,"ARG_OF_PERICENTER":313.3588,"MEAN_ANOMALY":46.6318,"EPHEMERIS_TYPE":0,"CLASSIFICATION_TYPE":"U","NORAD_CAT_ID":53109,"ELEMENT_SET_NO":999,"REV_AT_EPOCH":8522,"BSTAR":0,"MEAN_MOTION_DOT":-3.0e-8,"MEAN_MOTION_DDOT":0},{"OBJECT_NAME":"UMKA 1 (RS40S)","OBJECT_ID":"2023-091G","EPOCH":"2026-03-04T04:08:11.666400","MEAN_MOTION":15.19498576,"ECCENTRICITY":0.0014518,"INCLINATION":97.5189,"RA_OF_ASC_NODE":122.3011,"ARG_OF_PERICENTER":123.3536,"MEAN_ANOMALY":236.9091,"EPHEMERIS_TYPE":0,"CLASSIFICATION_TYPE":"U","NORAD_CAT_ID":57172,"ELEMENT_SET_NO":999,"REV_AT_EPOCH":14805,"BSTAR":0.00052031,"MEAN_MOTION_DOT":0.00011014,"MEAN_MOTION_DDOT":0},{"OBJECT_NAME":"CUBESX-HSE 3 (RS42S)","OBJECT_ID":"2023-091N","EPOCH":"2026-03-04T04:41:39.365664","MEAN_MOTION":15.2840244,"ECCENTRICITY":0.0012815,"INCLINATION":97.5217,"RA_OF_ASC_NODE":127.6105,"ARG_OF_PERICENTER":104.7869,"MEAN_ANOMALY":255.4791,"EPHEMERIS_TYPE":0,"CLASSIFICATION_TYPE":"U","NORAD_CAT_ID":57178,"ELEMENT_SET_NO":999,"REV_AT_EPOCH":14837,"BSTAR":0.00077882,"MEAN_MOTION_DOT":0.0002155,"MEAN_MOTION_DDOT":0},{"OBJECT_NAME":"MONITOR-3 (RS58S)","OBJECT_ID":"2023-091Q","EPOCH":"2026-03-04T04:52:47.972064","MEAN_MOTION":15.25571978,"ECCENTRICITY":0.001373,"INCLINATION":97.5213,"RA_OF_ASC_NODE":125.987,"ARG_OF_PERICENTER":109.2599,"MEAN_ANOMALY":251.0125,"EPHEMERIS_TYPE":0,"CLASSIFICATION_TYPE":"U","NORAD_CAT_ID":57180,"ELEMENT_SET_NO":999,"REV_AT_EPOCH":14827,"BSTAR":0.00069783,"MEAN_MOTION_DOT":0.00017712,"MEAN_MOTION_DDOT":0},{"OBJECT_NAME":"MONITOR-4 (RS57S)","OBJECT_ID":"2023-091S","EPOCH":"2026-03-04T04:31:49.382400","MEAN_MOTION":15.25657013,"ECCENTRICITY":0.0013686,"INCLINATION":97.5207,"RA_OF_ASC_NODE":125.937,"ARG_OF_PERICENTER":109.7287,"MEAN_ANOMALY":250.5428,"EPHEMERIS_TYPE":0,"CLASSIFICATION_TYPE":"U","NORAD_CAT_ID":57182,"ELEMENT_SET_NO":999,"REV_AT_EPOCH":14827,"BSTAR":0.00069354,"MEAN_MOTION_DOT":0.00017647,"MEAN_MOTION_DDOT":0},{"OBJECT_NAME":"MONITOR-2 (RS39S)","OBJECT_ID":"2023-091U","EPOCH":"2026-03-04T04:50:09.643200","MEAN_MOTION":15.17833874,"ECCENTRICITY":0.0012958,"INCLINATION":97.5212,"RA_OF_ASC_NODE":122.1714,"ARG_OF_PERICENTER":115.689,"MEAN_ANOMALY":244.5683,"EPHEMERIS_TYPE":0,"CLASSIFICATION_TYPE":"U","NORAD_CAT_ID":57184,"ELEMENT_SET_NO":999,"REV_AT_EPOCH":14802,"BSTAR":0.00042029,"MEAN_MOTION_DOT":8.458e-5,"MEAN_MOTION_DDOT":0},{"OBJECT_NAME":"SVYATOBOR 1 (RS60S)","OBJECT_ID":"2023-091X","EPOCH":"2026-03-04T02:55:27.152256","MEAN_MOTION":15.24667497,"ECCENTRICITY":0.0011275,"INCLINATION":97.5219,"RA_OF_ASC_NODE":126.4406,"ARG_OF_PERICENTER":102.4374,"MEAN_ANOMALY":257.8126,"EPHEMERIS_TYPE":0,"CLASSIFICATION_TYPE":"U","NORAD_CAT_ID":57187,"ELEMENT_SET_NO":999,"REV_AT_EPOCH":14829,"BSTAR":0.00064548,"MEAN_MOTION_DOT":0.00015922,"MEAN_MOTION_DDOT":0},{"OBJECT_NAME":"VIZARD-METEO (RS38S)","OBJECT_ID":"2023-091Z","EPOCH":"2026-03-04T05:07:42.645792","MEAN_MOTION":15.32507639,"ECCENTRICITY":0.0008964,"INCLINATION":97.5208,"RA_OF_ASC_NODE":130.8136,"ARG_OF_PERICENTER":89.1593,"MEAN_ANOMALY":271.0676,"EPHEMERIS_TYPE":0,"CLASSIFICATION_TYPE":"U","NORAD_CAT_ID":57189,"ELEMENT_SET_NO":999,"REV_AT_EPOCH":14859,"BSTAR":0.00090617,"MEAN_MOTION_DOT":0.00028472,"MEAN_MOTION_DDOT":0},{"OBJECT_NAME":"NANOZOND 1 (RS49S)","OBJECT_ID":"2023-091AA","EPOCH":"2026-03-04T05:05:23.237664","MEAN_MOTION":15.72185537,"ECCENTRICITY":5.3e-5,"INCLINATION":97.5096,"RA_OF_ASC_NODE":143.0279,"ARG_OF_PERICENTER":43.8027,"MEAN_ANOMALY":316.3277,"EPHEMERIS_TYPE":0,"CLASSIFICATION_TYPE":"U","NORAD_CAT_ID":57190,"ELEMENT_SET_NO":999,"REV_AT_EPOCH":14941,"BSTAR":0.00192,"MEAN_MOTION_DOT":0.0025971,"MEAN_MOTION_DDOT":0},{"OBJECT_NAME":"POLYTECH-UNIVERSE 3 (RS46S)","OBJECT_ID":"2023-091AB","EPOCH":"2026-03-04T04:13:47.974080","MEAN_MOTION":15.18014866,"ECCENTRICITY":0.0017131,"INCLINATION":97.5185,"RA_OF_ASC_NODE":121.653,"ARG_OF_PERICENTER":131.8875,"MEAN_ANOMALY":228.3823,"EPHEMERIS_TYPE":0,"CLASSIFICATION_TYPE":"U","NORAD_CAT_ID":57191,"ELEMENT_SET_NO":999,"REV_AT_EPOCH":14801,"BSTAR":0.00045405,"MEAN_MOTION_DOT":9.206e-5,"MEAN_MOTION_DDOT":0},{"OBJECT_NAME":"UTMN 2 (RS27S)","OBJECT_ID":"2023-091AP","EPOCH":"2026-03-04T04:58:09.241824","MEAN_MOTION":15.29288981,"ECCENTRICITY":0.0009886,"INCLINATION":97.521,"RA_OF_ASC_NODE":129.1268,"ARG_OF_PERICENTER":93.3764,"MEAN_ANOMALY":266.8606,"EPHEMERIS_TYPE":0,"CLASSIFICATION_TYPE":"U","NORAD_CAT_ID":57203,"ELEMENT_SET_NO":999,"REV_AT_EPOCH":14848,"BSTAR":0.00076958,"MEAN_MOTION_DOT":0.00021859,"MEAN_MOTION_DDOT":0},{"OBJECT_NAME":"KUZGTU 1 (RS47S)","OBJECT_ID":"2023-091AV","EPOCH":"2026-03-04T04:00:59.611968","MEAN_MOTION":15.27286242,"ECCENTRICITY":0.0013025,"INCLINATION":97.5194,"RA_OF_ASC_NODE":126.7112,"ARG_OF_PERICENTER":107.4423,"MEAN_ANOMALY":252.8241,"EPHEMERIS_TYPE":0,"CLASSIFICATION_TYPE":"U","NORAD_CAT_ID":57217,"ELEMENT_SET_NO":999,"REV_AT_EPOCH":14833,"BSTAR":0.00074033,"MEAN_MOTION_DOT":0.00019794,"MEAN_MOTION_DDOT":0},{"OBJECT_NAME":"SONATE-2","OBJECT_ID":"2024-043Q","EPOCH":"2026-03-03T08:05:13.857216","MEAN_MOTION":15.50754835,"ECCENTRICITY":0.00077979,"INCLINATION":97.5388,"RA_OF_ASC_NODE":206.964,"ARG_OF_PERICENTER":228.817,"MEAN_ANOMALY":131.2409,"EPHEMERIS_TYPE":0,"CLASSIFICATION_TYPE":"U","NORAD_CAT_ID":59112,"ELEMENT_SET_NO":999,"REV_AT_EPOCH":11144,"BSTAR":0.00074321577,"MEAN_MOTION_DOT":0.00042896,"MEAN_MOTION_DDOT":0},{"OBJECT_NAME":"MESAT1","OBJECT_ID":"2024-125G","EPOCH":"2026-03-04T02:17:33.891360","MEAN_MOTION":15.53001592,"ECCENTRICITY":0.0011269,"INCLINATION":97.2459,"RA_OF_ASC_NODE":278.8833,"ARG_OF_PERICENTER":244.7143,"MEAN_ANOMALY":115.2943,"EPHEMERIS_TYPE":0,"CLASSIFICATION_TYPE":"U","NORAD_CAT_ID":60209,"ELEMENT_SET_NO":999,"REV_AT_EPOCH":9320,"BSTAR":0.00092357,"MEAN_MOTION_DOT":0.00057973,"MEAN_MOTION_DDOT":0},{"OBJECT_NAME":"OOV-CUBE (TUBSAT-30)","OBJECT_ID":"2024-128F","EPOCH":"2026-03-04T00:55:02.962272","MEAN_MOTION":15.02197966,"ECCENTRICITY":0.0054992,"INCLINATION":61.9937,"RA_OF_ASC_NODE":232.0752,"ARG_OF_PERICENTER":111.2238,"MEAN_ANOMALY":249.4739,"EPHEMERIS_TYPE":0,"CLASSIFICATION_TYPE":"U","NORAD_CAT_ID":60240,"ELEMENT_SET_NO":999,"REV_AT_EPOCH":9031,"BSTAR":0.00038902,"MEAN_MOTION_DOT":5.107e-5,"MEAN_MOTION_DDOT":0}]
